IRIDIUM 57              
1 25273U 98019B   24165.45126405  .00000642  00000+0  21779-3 0  9991
2 25273  86.3948 299.6863 0002109  93.0212 267.1226 14.35246151371886
IRIDIUM 63              
1 25286U 98021B   24165.61573500  .00000516  00000+0  17181-3 0  9990
2 25286  86.3999 236.5116 0002324  90.3119 269.8344 14.35797804370944
IRIDIUM 69              
1 25319U 98026A   24165.62527678  .00000696  00000+0  21473-3 0  9996
2 25319  86.3984 250.9057 0003882 127.4692 232.6860 14.40035578370004
IRIDIUM 71              
1 25320U 98026B   24165.62607025  .00000661  00000+0  20226-3 0  9990
2 25320  86.3986 245.6665 0001935 155.9348 204.1941 14.40348601370520
IRIDIUM 73              
1 25344U 98032C   24165.57619429  .00000714  00000+0  17714-3 0  9995
2 25344  86.4447 203.1410 0002649 104.5107 255.6392 14.50574559377108
IRIDIUM 82              
1 25467U 98051A   24165.63012532  .00014132  00000+0  71478-3 0  9997
2 25467  86.3738 287.4596 0126006 233.2617 125.6998 15.10138963367958
IRIDIUM 2               
1 25527U 98066A   24165.42933514  .00411060  64074-4  11582-2 0  9995
2 25527  85.4959 305.4885 0006770 261.6614  98.3900 15.93438156407333
