<?xml version="1.0" encoding="UTF-8"?>
<ndm xmlns:xsi="http://www.w3.org/2001/XMLSchema-instance" xsi:noNamespaceSchemaLocation="https://sanaregistry.org/r/ndmxml_unqualified/ndmxml-2.0.0-master-2.0.xsd">
<omm id="CCSDS_OMM_VERS" version="2.0">
<header><CREATION_DATE/><ORIGINATOR/></header><body><segment><metadata><OBJECT_NAME>IRIDIUM 57</OBJECT_NAME><OBJECT_ID>1998-019B</OBJECT_ID><CENTER_NAME>EARTH</CENTER_NAME><REF_FRAME>TEME</REF_FRAME><TIME_SYSTEM>UTC</TIME_SYSTEM><MEAN_ELEMENT_THEORY>SGP4</MEAN_ELEMENT_THEORY></metadata><data><meanElements><EPOCH>2024-06-13T10:49:49.213920</EPOCH><MEAN_MOTION>14.35246151</MEAN_MOTION><ECCENTRICITY>.0002109</ECCENTRICITY><INCLINATION>86.3948</INCLINATION><RA_OF_ASC_NODE>299.6863</RA_OF_ASC_NODE><ARG_OF_PERICENTER>93.0212</ARG_OF_PERICENTER><MEAN_ANOMALY>267.1226</MEAN_ANOMALY></meanElements><tleParameters><EPHEMERIS_TYPE>0</EPHEMERIS_TYPE><CLASSIFICATION_TYPE>U</CLASSIFICATION_TYPE><NORAD_CAT_ID>25273</NORAD_CAT_ID><ELEMENT_SET_NO>999</ELEMENT_SET_NO><REV_AT_EPOCH>37188</REV_AT_EPOCH><BSTAR>.21779E-3</BSTAR><MEAN_MOTION_DOT>.642E-5</MEAN_MOTION_DOT><MEAN_MOTION_DDOT>0</MEAN_MOTION_DDOT></tleParameters></data></segment></body></omm>
<omm id="CCSDS_OMM_VERS" version="2.0">
<header><CREATION_DATE/><ORIGINATOR/></header><body><segment><metadata><OBJECT_NAME>IRIDIUM 63</OBJECT_NAME><OBJECT_ID>1998-021B</OBJECT_ID><CENTER_NAME>EARTH</CENTER_NAME><REF_FRAME>TEME</REF_FRAME><TIME_SYSTEM>UTC</TIME_SYSTEM><MEAN_ELEMENT_THEORY>SGP4</MEAN_ELEMENT_THEORY></metadata><data><meanElements><EPOCH>2024-06-13T14:46:39.504000</EPOCH><MEAN_MOTION>14.35797804</MEAN_MOTION><ECCENTRICITY>.0002324</ECCENTRICITY><INCLINATION>86.3999</INCLINATION><RA_OF_ASC_NODE>236.5116</RA_OF_ASC_NODE><ARG_OF_PERICENTER>90.3119</ARG_OF_PERICENTER><MEAN_ANOMALY>269.8344</MEAN_ANOMALY></meanElements><tleParameters><EPHEMERIS_TYPE>0</EPHEMERIS_TYPE><CLASSIFICATION_TYPE>U</CLASSIFICATION_TYPE><NORAD_CAT_ID>25286</NORAD_CAT_ID><ELEMENT_SET_NO>999</ELEMENT_SET_NO><REV_AT_EPOCH>37094</REV_AT_EPOCH><BSTAR>.17181E-3</BSTAR><MEAN_MOTION_DOT>.516E-5</MEAN_MOTION_DOT><MEAN_MOTION_DDOT>0</MEAN_MOTION_DDOT></tleParameters></data></segment></body></omm>
<omm id="CCSDS_OMM_VERS" version="2.0">
<header><CREATION_DATE/><ORIGINATOR/></header><body><segment><metadata><OBJECT_NAME>IRIDIUM 69</OBJECT_NAME><OBJECT_ID>1998-026A</OBJECT_ID><CENTER_NAME>EARTH</CENTER_NAME><REF_FRAME>TEME</REF_FRAME><TIME_SYSTEM>UTC</TIME_SYSTEM><MEAN_ELEMENT_THEORY>SGP4</MEAN_ELEMENT_THEORY></metadata><data><meanElements><EPOCH>2024-06-13T15:00:23.913792</EPOCH><MEAN_MOTION>14.40035578</MEAN_MOTION><ECCENTRICITY>.0003882</ECCENTRICITY><INCLINATION>86.3984</INCLINATION><RA_OF_ASC_NODE>250.9057</RA_OF_ASC_NODE><ARG_OF_PERICENTER>127.4692</ARG_OF_PERICENTER><MEAN_ANOMALY>232.6860</MEAN_ANOMALY></meanElements><tleParameters><EPHEMERIS_TYPE>0</EPHEMERIS_TYPE><CLASSIFICATION_TYPE>U</CLASSIFICATION_TYPE><NORAD_CAT_ID>25319</NORAD_CAT_ID><ELEMENT_SET_NO>999</ELEMENT_SET_NO><REV_AT_EPOCH>37000</REV_AT_EPOCH><BSTAR>.21473E-3</BSTAR><MEAN_MOTION_DOT>.696E-5</MEAN_MOTION_DOT><MEAN_MOTION_DDOT>0</MEAN_MOTION_DDOT></tleParameters></data></segment></body></omm>
<omm id="CCSDS_OMM_VERS" version="2.0">
<header><CREATION_DATE/><ORIGINATOR/></header><body><segment><metadata><OBJECT_NAME>IRIDIUM 71</OBJECT_NAME><OBJECT_ID>1998-026B</OBJECT_ID><CENTER_NAME>EARTH</CENTER_NAME><REF_FRAME>TEME</REF_FRAME><TIME_SYSTEM>UTC</TIME_SYSTEM><MEAN_ELEMENT_THEORY>SGP4</MEAN_ELEMENT_THEORY></metadata><data><meanElements><EPOCH>2024-06-13T15:01:32.469600</EPOCH><MEAN_MOTION>14.40348601</MEAN_MOTION><ECCENTRICITY>.0001935</ECCENTRICITY><INCLINATION>86.3986</INCLINATION><RA_OF_ASC_NODE>245.6665</RA_OF_ASC_NODE><ARG_OF_PERICENTER>155.9348</ARG_OF_PERICENTER><MEAN_ANOMALY>204.1941</MEAN_ANOMALY></meanElements><tleParameters><EPHEMERIS_TYPE>0</EPHEMERIS_TYPE><CLASSIFICATION_TYPE>U</CLASSIFICATION_TYPE><NORAD_CAT_ID>25320</NORAD_CAT_ID><ELEMENT_SET_NO>999</ELEMENT_SET_NO><REV_AT_EPOCH>37052</REV_AT_EPOCH><BSTAR>.20226E-3</BSTAR><MEAN_MOTION_DOT>.661E-5</MEAN_MOTION_DOT><MEAN_MOTION_DDOT>0</MEAN_MOTION_DDOT></tleParameters></data></segment></body></omm>
<omm id="CCSDS_OMM_VERS" version="2.0">
<header><CREATION_DATE/><ORIGINATOR/></header><body><segment><metadata><OBJECT_NAME>IRIDIUM 73</OBJECT_NAME><OBJECT_ID>1998-032C</OBJECT_ID><CENTER_NAME>EARTH</CENTER_NAME><REF_FRAME>TEME</REF_FRAME><TIME_SYSTEM>UTC</TIME_SYSTEM><MEAN_ELEMENT_THEORY>SGP4</MEAN_ELEMENT_THEORY></metadata><data><meanElements><EPOCH>2024-06-13T13:49:43.186656</EPOCH><MEAN_MOTION>14.50574559</MEAN_MOTION><ECCENTRICITY>.0002649</ECCENTRICITY><INCLINATION>86.4447</INCLINATION><RA_OF_ASC_NODE>203.1410</RA_OF_ASC_NODE><ARG_OF_PERICENTER>104.5107</ARG_OF_PERICENTER><MEAN_ANOMALY>255.6392</MEAN_ANOMALY></meanElements><tleParameters><EPHEMERIS_TYPE>0</EPHEMERIS_TYPE><CLASSIFICATION_TYPE>U</CLASSIFICATION_TYPE><NORAD_CAT_ID>25344</NORAD_CAT_ID><ELEMENT_SET_NO>999</ELEMENT_SET_NO><REV_AT_EPOCH>37710</REV_AT_EPOCH><BSTAR>.17714E-3</BSTAR><MEAN_MOTION_DOT>.714E-5</MEAN_MOTION_DOT><MEAN_MOTION_DDOT>0</MEAN_MOTION_DDOT></tleParameters></data></segment></body></omm>
<omm id="CCSDS_OMM_VERS" version="2.0">
<header><CREATION_DATE/><ORIGINATOR/></header><body><segment><metadata><OBJECT_NAME>IRIDIUM 82</OBJECT_NAME><OBJECT_ID>1998-051A</OBJECT_ID><CENTER_NAME>EARTH</CENTER_NAME><REF_FRAME>TEME</REF_FRAME><TIME_SYSTEM>UTC</TIME_SYSTEM><MEAN_ELEMENT_THEORY>SGP4</MEAN_ELEMENT_THEORY></metadata><data><meanElements><EPOCH>2024-06-13T15:07:22.827648</EPOCH><MEAN_MOTION>15.10138963</MEAN_MOTION><ECCENTRICITY>.0126006</ECCENTRICITY><INCLINATION>86.3738</INCLINATION><RA_OF_ASC_NODE>287.4596</RA_OF_ASC_NODE><ARG_OF_PERICENTER>233.2617</ARG_OF_PERICENTER><MEAN_ANOMALY>125.6998</MEAN_ANOMALY></meanElements><tleParameters><EPHEMERIS_TYPE>0</EPHEMERIS_TYPE><CLASSIFICATION_TYPE>U</CLASSIFICATION_TYPE><NORAD_CAT_ID>25467</NORAD_CAT_ID><ELEMENT_SET_NO>999</ELEMENT_SET_NO><REV_AT_EPOCH>36795</REV_AT_EPOCH><BSTAR>.71478E-3</BSTAR><MEAN_MOTION_DOT>.14132E-3</MEAN_MOTION_DOT><MEAN_MOTION_DDOT>0</MEAN_MOTION_DDOT></tleParameters></data></segment></body></omm>
<omm id="CCSDS_OMM_VERS" version="2.0">
<header><CREATION_DATE/><ORIGINATOR/></header><body><segment><metadata><OBJECT_NAME>IRIDIUM 2</OBJECT_NAME><OBJECT_ID>1998-066A</OBJECT_ID><CENTER_NAME>EARTH</CENTER_NAME><REF_FRAME>TEME</REF_FRAME><TIME_SYSTEM>UTC</TIME_SYSTEM><MEAN_ELEMENT_THEORY>SGP4</MEAN_ELEMENT_THEORY></metadata><data><meanElements><EPOCH>2024-06-13T10:18:14.556096</EPOCH><MEAN_MOTION>15.93438156</MEAN_MOTION><ECCENTRICITY>.000677</ECCENTRICITY><INCLINATION>85.4959</INCLINATION><RA_OF_ASC_NODE>305.4885</RA_OF_ASC_NODE><ARG_OF_PERICENTER>261.6614</ARG_OF_PERICENTER><MEAN_ANOMALY>98.3900</MEAN_ANOMALY></meanElements><tleParameters><EPHEMERIS_TYPE>0</EPHEMERIS_TYPE><CLASSIFICATION_TYPE>U</CLASSIFICATION_TYPE><NORAD_CAT_ID>25527</NORAD_CAT_ID><ELEMENT_SET_NO>999</ELEMENT_SET_NO><REV_AT_EPOCH>40733</REV_AT_EPOCH><BSTAR>.11582E-2</BSTAR><MEAN_MOTION_DOT>.41106E-2</MEAN_MOTION_DOT><MEAN_MOTION_DDOT>.64074E-4</MEAN_MOTION_DDOT></tleParameters></data></segment></body></omm>
</ndm>
